[{"OBJECT_NAME":"OOV-CUBE (TUBSAT-30)","OBJECT_ID":"2024-128F","EPOCH":"2026-03-02T23:21:23.793120","MEAN_MOTION":15.0218599,"ECCENTRICITY":0.0055096,"INCLINATION":61.9933,"RA_OF_ASC_NODE":235.786,"ARG_OF_PERICENTER":111.0571,"MEAN_ANOMALY":249.6424,"EPHEMERIS_TYPE":0,"CLASSIFICATION_TYPE":"U","NORAD_CAT_ID":60240,"ELEMENT_SET_NO":999,"REV_AT_EPOCH":9015,"BSTAR":0.00032189,"MEAN_MOTION_DOT":4.186e-5,"MEAN_MOTION_DDOT":0}]
