OOV-CUBE (TUBSAT-30)    
1 60240U 24128F   26061.97319205  .00004186  00000+0  32189-3 0  9994
2 60240  61.9933 235.7860 0055096 111.0571 249.6424 15.02185990 90153
